{"type": "FeatureCollection", "features": [ {"type": "Feature", "properties": {"norad_id": 30928, "name": "FENGYUN 1C DEB", "group": "fengyun-1c-debris", "lat": -74.59777389059353, "lon": -127.81294923100984, "alt_km": 1249.3635664322146, "timestamp": "2025-12-25T07:41:10.002690+00:00", "meta": {"OBJECT_NAME": "FENGYUN 1C DEB", "OBJECT_ID": "1999-025AZS", "EPOCH": "2025-12-24T05:11:59.057664", "MEAN_MOTION": 13.22254347, "ECCENTRICITY": 0.04498554, "INCLINATION": 98.8822, "RA_OF_ASC_NODE": 85.829, "ARG_OF_PERICENTER": 3.7388, "MEAN_ANOMALY": 48.0779, "EPHEMERIS_TYPE": 0, "CLASSIFICATION_TYPE": "U", "NORAD_CAT_ID": 30928, "ELEMENT_SET_NO": 999, "REV_AT_EPOCH": 90500, "BSTAR": 0.0011187568, "MEAN_MOTION_DOT": 7.59e-06, "MEAN_MOTION_DDOT": 0}, "tle": {"line1": "1 30928U 99025AZS 25358.21665576  .00000759  00000+0  11188-2 0  9999", "line2": "2 30928  98.8822  85.8290 0449855   3.7388  48.0779 13.22254347905009"}}, "geometry": {"type": "Point", "coordinates": [-127.81294923100984, -74.59777389059353]}}, {"type": "Feature", "properties": {"norad_id": 30930, "name": "FENGYUN 1C DEB", "group": "fengyun-1c-debris", "lat": -32.06293817440166, "lon": -158.13824733594035, "alt_km": 835.7352989673582, "timestamp": "2025-12-25T07:41:10.002700+00:00", "meta": {"OBJECT_NAME": "FENGYUN 1C DEB", "OBJECT_ID": "1999-025AZU", "EPOCH": "2025-12-24T07:35:54.253824", "MEAN_MOTION": 14.37414538, "ECCENTRICITY": 0.01096647, "INCLINATION": 98.2146, "RA_OF_ASC_NODE": 26.0944, "ARG_OF_PERICENTER": 71.9242, "MEAN_ANOMALY": 349.0631, "EPHEMERIS_TYPE": 0, "CLASSIFICATION_TYPE": "U", "NORAD_CAT_ID": 30930, "ELEMENT_SET_NO": 999, "REV_AT_EPOCH": 98498, "BSTAR": 0.00032538057, "MEAN_MOTION_DOT": 1e-05, "MEAN_MOTION_DDOT": 0}, "tle": {"line1": "1 30930U 99025AZU 25358.31660016  .00001000  00000+0  32538-3 0  9990", "line2": "2 30930  98.2146  26.0944 0109664  71.9242 349.0631 14.37414538984987"}}, "geometry": {"type": "Point", "coordinates": [-158.13824733594035, -32.06293817440166]}}, {"type": "Feature", "properties": {"norad_id": 30931, "name": "FENGYUN 1C DEB", "group": "fengyun-1c-debris", "lat": -42.484906075657264, "lon": -131.59219533000066, "alt_km": 949.078680669365, "timestamp": "2025-12-25T07:41:10.002710+00:00", "meta": {"OBJECT_NAME": "FENGYUN 1C DEB", "OBJECT_ID": "1999-025AZV", "EPOCH": "2025-12-24T15:55:49.630368", "MEAN_MOTION": 14.0153375, "ECCENTRICITY": 0.0092675, "INCLINATION": 99.1704, "RA_OF_ASC_NODE": 56.2559, "ARG_OF_PERICENTER": 8.5599, "MEAN_ANOMALY": 144.6456, "EPHEMERIS_TYPE": 0, "CLASSIFICATION_TYPE": "U", "NORAD_CAT_ID": 30931, "ELEMENT_SET_NO": 999, "REV_AT_EPOCH": 96092, "BSTAR": 0.00055182247, "MEAN_MOTION_DOT": 8.21e-06, "MEAN_MOTION_DDOT": 0}, "tle": {"line1": "1 30931U 99025AZV 25358.66376887  .00000821  00000+0  55182-3 0  9999", "line2": "2 30931  99.1704  56.2559 0092675   8.5599 144.6456 14.01533750960920"}}, "geometry": {"type": "Point", "coordinates": [-131.59219533000066, -42.484906075657264]}}, {"type": "Feature", "properties": {"norad_id": 30932, "name": "FENGYUN 1C DEB", "group": "fengyun-1c-debris", "lat": -38.717033594951765, "lon": 105.22598191448158, "alt_km": 776.1584575079478, "timestamp": "2025-12-25T07:41:10.002720+00:00", "meta": {"OBJECT_NAME": "FENGYUN 1C DEB", "OBJECT_ID": "1999-025AZW", "EPOCH": "2025-12-21T06:43:56.374176", "MEAN_MOTION": 14.26904015, "ECCENTRICITY": 0.00571492, "INCLINATION": 98.9092, "RA_OF_ASC_NODE": 288.3376, "ARG_OF_PERICENTER": 269.3371, "MEAN_ANOMALY": 90.126, "EPHEMERIS_TYPE": 0, "CLASSIFICATION_TYPE": "U", "NORAD_CAT_ID": 30932, "ELEMENT_SET_NO": 999, "REV_AT_EPOCH": 96516, "BSTAR": 0.0018186282, "MEAN_MOTION_DOT": 4.449e-05, "MEAN_MOTION_DDOT": 0}, "tle": {"line1": "1 30932U 99025AZW 25355.28051359  .00004449  00000+0  18186-2 0  9991", "line2": "2 30932  98.9092 288.3376 0057149 269.3371  90.1260 14.26904015965167"}}, "geometry": {"type": "Point", "coordinates": [105.22598191448158, -38.717033594951765]}}, {"type": "Feature", "properties": {"norad_id": 30933, "name": "FENGYUN 1C DEB", "group": "fengyun-1c-debris", "lat": -19.120048972154205, "lon": 159.27909184585704, "alt_km": 770.942206848129, "timestamp": "2025-12-25T07:41:10.002731+00:00", "meta": {"OBJECT_NAME": "FENGYUN 1C DEB", "OBJECT_ID": "1999-025AZX", "EPOCH": "2025-12-23T11:53:06.221760", "MEAN_MOTION": 14.36772537, "ECCENTRICITY": 0.00755723, "INCLINATION": 99.0479, "RA_OF_ASC_NODE": 340.5286, "ARG_OF_PERICENTER": 291.73, "MEAN_ANOMALY": 193.7425, "EPHEMERIS_TYPE": 0, "CLASSIFICATION_TYPE": "U", "NORAD_CAT_ID": 30933, "ELEMENT_SET_NO": 999, "REV_AT_EPOCH": 96026, "BSTAR": 0.0047574894, "MEAN_MOTION_DOT": 0.00014487, "MEAN_MOTION_DDOT": 0}, "tle": {"line1": "1 30933U 99025AZX 25357.49521090  .00014487  00000+0  47575-2 0  9998", "line2": "2 30933  99.0479 340.5286 0075572 291.7300 193.7425 14.36772537960263"}}, "geometry": {"type": "Point", "coordinates": [159.27909184585704, -19.120048972154205]}}, {"type": "Feature", "properties": {"norad_id": 30934, "name": "FENGYUN 1C DEB", "group": "fengyun-1c-debris", "lat": 31.71232276497181, "lon": -130.69377673021225, "alt_km": 838.1855030876322, "timestamp": "2025-12-25T07:41:10.002741+00:00", "meta": {"OBJECT_NAME": "FENGYUN 1C DEB", "OBJECT_ID": "1999-025AZY", "EPOCH": "2025-12-24T06:34:30.394560", "MEAN_MOTION": 13.46784403, "ECCENTRICITY": 0.03412964, "INCLINATION": 98.7654, "RA_OF_ASC_NODE": 233.8587, "ARG_OF_PERICENTER": 52.164, "MEAN_ANOMALY": 310.9869, "EPHEMERIS_TYPE": 0, "CLASSIFICATION_TYPE": "U", "NORAD_CAT_ID": 30934, "ELEMENT_SET_NO": 999, "REV_AT_EPOCH": 91863, "BSTAR": 0.0021746482, "MEAN_MOTION_DOT": 1.84e-05, "MEAN_MOTION_DDOT": 0}, "tle": {"line1": "1 30934U 99025AZY 25358.27396290  .00001840  00000+0  21746-2 0  9999", "line2": "2 30934  98.7654 233.8587 0341296  52.1640 310.9869 13.46784403918632"}}, "geometry": {"type": "Point", "coordinates": [-130.69377673021225, 31.71232276497181]}}, {"type": "Feature", "properties": {"norad_id": 30936, "name": "FENGYUN 1C DEB", "group": "fengyun-1c-debris", "lat": -66.92143915083976, "lon": 50.563007204852894, "alt_km": 794.9316844755876, "timestamp": "2025-12-25T07:41:10.002751+00:00", "meta": {"OBJECT_NAME": "FENGYUN 1C DEB", "OBJECT_ID": "1999-025BAA", "EPOCH": "2025-12-24T18:47:42.540864", "MEAN_MOTION": 14.23399317, "ECCENTRICITY": 0.00461096, "INCLINATION": 98.5807, "RA_OF_ASC_NODE": 29.2855, "ARG_OF_PERICENTER": 255.0302, "MEAN_ANOMALY": 165.4084, "EPHEMERIS_TYPE": 0, "CLASSIFICATION_TYPE": "U", "NORAD_CAT_ID": 30936, "ELEMENT_SET_NO": 999, "REV_AT_EPOCH": 97304, "BSTAR": 0.00044834489, "MEAN_MOTION_DOT": 9.85e-06, "MEAN_MOTION_DDOT": 0}, "tle": {"line1": "1 30936U 99025BAA 25358.78313126  .00000985  00000+0  44834-3 0  9997", "line2": "2 30936  98.5807  29.2855 0046109 255.0302 165.4084 14.23399317973041"}}, "geometry": {"type": "Point", "coordinates": [50.563007204852894, -66.92143915083976]}}, {"type": "Feature", "properties": {"norad_id": 30937, "name": "FENGYUN 1C DEB", "group": "fengyun-1c-debris", "lat": -54.70318157011867, "lon": 64.57080938528827, "alt_km": 901.1963253833383, "timestamp": "2025-12-25T07:41:10.002762+00:00", "meta": {"OBJECT_NAME": "FENGYUN 1C DEB", "OBJECT_ID": "1999-025BAB", "EPOCH": "2025-12-24T02:50:01.044960", "MEAN_MOTION": 13.95588445, "ECCENTRICITY": 0.00753021, "INCLINATION": 99.0873, "RA_OF_ASC_NODE": 50.32, "ARG_OF_PERICENTER": 22.2923, "MEAN_ANOMALY": 6.2216, "EPHEMERIS_TYPE": 0, "CLASSIFICATION_TYPE": "U", "NORAD_CAT_ID": 30937, "ELEMENT_SET_NO": 999, "REV_AT_EPOCH": 95875, "BSTAR": -3.472039e-05, "MEAN_MOTION_DOT": -9.2e-07, "MEAN_MOTION_DDOT": 0}, "tle": {"line1": "1 30937U 99025BAB 25358.11806765 -.00000092  00000+0 -34720-4 0  9996", "line2": "2 30937  99.0873  50.3200 0075302  22.2923   6.2216 13.95588445958750"}}, "geometry": {"type": "Point", "coordinates": [64.57080938528827, -54.70318157011867]}}, {"type": "Feature", "properties": {"norad_id": 30938, "name": "FENGYUN 1C DEB", "group": "fengyun-1c-debris", "lat": 43.07829410599729, "lon": 4.3160167983064435, "alt_km": 826.020824451577, "timestamp": "2025-12-25T07:41:10.002772+00:00", "meta": {"OBJECT_NAME": "FENGYUN 1C DEB", "OBJECT_ID": "1999-025BAC", "EPOCH": "2025-12-24T15:08:38.849280", "MEAN_MOTION": 14.1983637, "ECCENTRICITY": 0.00454306, "INCLINATION": 98.5904, "RA_OF_ASC_NODE": 11.7729, "ARG_OF_PERICENTER": 308.9534, "MEAN_ANOMALY": 173.252, "EPHEMERIS_TYPE": 0, "CLASSIFICATION_TYPE": "U", "NORAD_CAT_ID": 30938, "ELEMENT_SET_NO": 999, "REV_AT_EPOCH": 97288, "BSTAR": 0.0003181493, "MEAN_MOTION_DOT": 6.38e-06, "MEAN_MOTION_DDOT": 0}, "tle": {"line1": "1 30938U 99025BAC 25358.63100520  .00000638  00000+0  31815-3 0  9995", "line2": "2 30938  98.5904  11.7729 0045430 308.9534 173.2520 14.19836370972881"}}, "geometry": {"type": "Point", "coordinates": [4.3160167983064435, 43.07829410599729]}}, {"type": "Feature", "properties": {"norad_id": 30940, "name": "FENGYUN 1C DEB", "group": "fengyun-1c-debris", "lat": 12.696803143234934, "lon": -178.93667827034832, "alt_km": 894.09573099724, "timestamp": "2025-12-25T07:41:10.002781+00:00", "meta": {"OBJECT_NAME": "FENGYUN 1C DEB", "OBJECT_ID": "1999-025BAE", "EPOCH": "2025-12-22T05:52:00.054912", "MEAN_MOTION": 14.08319135, "ECCENTRICITY": 0.00407229, "INCLINATION": 98.6214, "RA_OF_ASC_NODE": 356.1653, "ARG_OF_PERICENTER": 336.7041, "MEAN_ANOMALY": 84.9821, "EPHEMERIS_TYPE": 0, "CLASSIFICATION_TYPE": "U", "NORAD_CAT_ID": 30940, "ELEMENT_SET_NO": 999, "REV_AT_EPOCH": 96266, "BSTAR": 0.00045494688, "MEAN_MOTION_DOT": 7.42e-06, "MEAN_MOTION_DDOT": 0}, "tle": {"line1": "1 30940U 99025BAE 25356.24444508  .00000742  00000+0  45495-3 0  9995", "line2": "2 30940  98.6214 356.1653 0040722 336.7041  84.9821 14.08319135962662"}}, "geometry": {"type": "Point", "coordinates": [-178.93667827034832, 12.696803143234934]}}]}